[{"OBJECT_NAME":"NOAA 1","OBJECT_ID":"1970-106A","EPOCH":"2026-03-26T14:01:23.208096","MEAN_MOTION":12.54049479,"ECCENTRICITY":0.0031988,"INCLINATION":101.3477,"RA_OF_ASC_NODE":123.8994,"ARG_OF_PERICENTER":147.9661,"MEAN_ANOMALY":19.6411,"EPHEMERIS_TYPE":0,"CLASSIFICATION_TYPE":"U","NORAD_CAT_ID":4793,"ELEMENT_SET_NO":999,"REV_AT_EPOCH":53033,"BSTAR":-2.5629e-5,"MEAN_MOTION_DOT":-4.7e-7,"MEAN_MOTION_DDOT":0},{"OBJECT_NAME":"NOAA 2 (ITOS-D)","OBJECT_ID":"1972-082A","EPOCH":"2026-03-26T21:36:26.968032","MEAN_MOTION":12.53212338,"ECCENTRICITY":0.0003795,"INCLINATION":102.015,"RA_OF_ASC_NODE":103.5523,"ARG_OF_PERICENTER":331.4474,"MEAN_ANOMALY":93.6099,"EPHEMERIS_TYPE":0,"CLASSIFICATION_TYPE":"U","NORAD_CAT_ID":6235,"ELEMENT_SET_NO":999,"REV_AT_EPOCH":44464,"BSTAR":9.8046e-5,"MEAN_MOTION_DOT":-3.1e-7,"MEAN_MOTION_DDOT":0},{"OBJECT_NAME":"NOAA 3","OBJECT_ID":"1973-086A","EPOCH":"2026-03-26T13:17:21.185088","MEAN_MOTION":12.40392151,"ECCENTRICITY":0.000616,"INCLINATION":102.2897,"RA_OF_ASC_NODE":98.6966,"ARG_OF_PERICENTER":276.6691,"MEAN_ANOMALY":259.5939,"EPHEMERIS_TYPE":0,"CLASSIFICATION_TYPE":"U","NORAD_CAT_ID":6920,"ELEMENT_SET_NO":999,"REV_AT_EPOCH":37165,"BSTAR":0.00012678,"MEAN_MOTION_DOT":-2.9e-7,"MEAN_MOTION_DDOT":0},{"OBJECT_NAME":"NOAA 4","OBJECT_ID":"1974-089A","EPOCH":"2026-03-26T21:07:19.398432","MEAN_MOTION":12.53201988,"ECCENTRICITY":0.0008932,"INCLINATION":102.0065,"RA_OF_ASC_NODE":97.7958,"ARG_OF_PERICENTER":356.278,"MEAN_ANOMALY":68.7238,"EPHEMERIS_TYPE":0,"CLASSIFICATION_TYPE":"U","NORAD_CAT_ID":7529,"ELEMENT_SET_NO":999,"REV_AT_EPOCH":34921,"BSTAR":0.00010608,"MEAN_MOTION_DOT":-3.0e-7,"MEAN_MOTION_DDOT":0},{"OBJECT_NAME":"NOAA 5","OBJECT_ID":"1976-077A","EPOCH":"2026-03-26T21:23:55.591296","MEAN_MOTION":12.37828971,"ECCENTRICITY":0.0010014,"INCLINATION":102.2984,"RA_OF_ASC_NODE":71.4906,"ARG_OF_PERICENTER":129.08,"MEAN_ANOMALY":284.8154,"EPHEMERIS_TYPE":0,"CLASSIFICATION_TYPE":"U","NORAD_CAT_ID":9057,"ELEMENT_SET_NO":999,"REV_AT_EPOCH":24429,"BSTAR":0.00025041,"MEAN_MOTION_DOT":-1.3e-7,"MEAN_MOTION_DDOT":0},{"OBJECT_NAME":"TIROS N","OBJECT_ID":"1978-096A","EPOCH":"2026-03-26T12:27:18.550080","MEAN_MOTION":14.19345625,"ECCENTRICITY":0.0011505,"INCLINATION":98.4613,"RA_OF_ASC_NODE":110.291,"ARG_OF_PERICENTER":119.5482,"MEAN_ANOMALY":240.6843,"EPHEMERIS_TYPE":0,"CLASSIFICATION_TYPE":"U","NORAD_CAT_ID":11060,"ELEMENT_SET_NO":999,"REV_AT_EPOCH":66702,"BSTAR":9.894e-5,"MEAN_MOTION_DOT":1.67e-6,"MEAN_MOTION_DDOT":0},{"OBJECT_NAME":"NOAA 6","OBJECT_ID":"1979-057A","EPOCH":"2026-03-26T16:46:36.547104","MEAN_MOTION":14.35445717,"ECCENTRICITY":0.0010668,"INCLINATION":98.5725,"RA_OF_ASC_NODE":115.7478,"ARG_OF_PERICENTER":138.2237,"MEAN_ANOMALY":221.9764,"EPHEMERIS_TYPE":0,"CLASSIFICATION_TYPE":"U","NORAD_CAT_ID":11416,"ELEMENT_SET_NO":999,"REV_AT_EPOCH":43912,"BSTAR":0.00011857,"MEAN_MOTION_DOT":2.97e-6,"MEAN_MOTION_DDOT":0},{"OBJECT_NAME":"NOAA 7","OBJECT_ID":"1981-059A","EPOCH":"2026-03-26T14:22:00.690240","MEAN_MOTION":14.17776832,"ECCENTRICITY":0.0012178,"INCLINATION":98.8028,"RA_OF_ASC_NODE":153.5037,"ARG_OF_PERICENTER":140.7831,"MEAN_ANOMALY":219.4228,"EPHEMERIS_TYPE":0,"CLASSIFICATION_TYPE":"U","NORAD_CAT_ID":12553,"ELEMENT_SET_NO":999,"REV_AT_EPOCH":31304,"BSTAR":4.3153e-5,"MEAN_MOTION_DOT":4.4e-7,"MEAN_MOTION_DDOT":0},{"OBJECT_NAME":"NOAA 8","OBJECT_ID":"1983-022A","EPOCH":"2026-03-26T06:42:59.583456","MEAN_MOTION":14.29773062,"ECCENTRICITY":0.0015539,"INCLINATION":98.7368,"RA_OF_ASC_NODE":98.1322,"ARG_OF_PERICENTER":138.0865,"MEAN_ANOMALY":222.1509,"EPHEMERIS_TYPE":0,"CLASSIFICATION_TYPE":"U","NORAD_CAT_ID":13923,"ELEMENT_SET_NO":999,"REV_AT_EPOCH":23922,"BSTAR":7.461e-5,"MEAN_MOTION_DOT":1.47e-6,"MEAN_MOTION_DDOT":0},{"OBJECT_NAME":"NOAA 9","OBJECT_ID":"1984-123A","EPOCH":"2026-03-26T07:11:32.122176","MEAN_MOTION":14.17044356,"ECCENTRICITY":0.0014012,"INCLINATION":99.1077,"RA_OF_ASC_NODE":109.987,"ARG_OF_PERICENTER":221.6294,"MEAN_ANOMALY":149.1429,"EPHEMERIS_TYPE":0,"CLASSIFICATION_TYPE":"U","NORAD_CAT_ID":15427,"ELEMENT_SET_NO":999,"REV_AT_EPOCH":13168,"BSTAR":7.9928e-5,"MEAN_MOTION_DOT":1.14e-6,"MEAN_MOTION_DDOT":0},{"OBJECT_NAME":"NOAA 10","OBJECT_ID":"1986-073A","EPOCH":"2026-03-26T10:26:09.490848","MEAN_MOTION":14.29150774,"ECCENTRICITY":0.0011073,"INCLINATION":98.7018,"RA_OF_ASC_NODE":78.7965,"ARG_OF_PERICENTER":235.3021,"MEAN_ANOMALY":280.131,"EPHEMERIS_TYPE":0,"CLASSIFICATION_TYPE":"U","NORAD_CAT_ID":16969,"ELEMENT_SET_NO":999,"REV_AT_EPOCH":5759,"BSTAR":7.2808e-5,"MEAN_MOTION_DOT":1.4e-6,"MEAN_MOTION_DDOT":0},{"OBJECT_NAME":"NOAA 11","OBJECT_ID":"1988-089A","EPOCH":"2026-03-26T09:27:23.518944","MEAN_MOTION":14.15824447,"ECCENTRICITY":0.0011132,"INCLINATION":98.6122,"RA_OF_ASC_NODE":33.8738,"ARG_OF_PERICENTER":170.0778,"MEAN_ANOMALY":190.0618,"EPHEMERIS_TYPE":0,"CLASSIFICATION_TYPE":"U","NORAD_CAT_ID":19531,"ELEMENT_SET_NO":999,"REV_AT_EPOCH":93576,"BSTAR":6.2208e-5,"MEAN_MOTION_DOT":8.0e-7,"MEAN_MOTION_DDOT":0},{"OBJECT_NAME":"NOAA 12","OBJECT_ID":"1991-032A","EPOCH":"2026-03-26T19:05:05.178912","MEAN_MOTION":14.2672275,"ECCENTRICITY":0.0012491,"INCLINATION":98.6171,"RA_OF_ASC_NODE":75.5323,"ARG_OF_PERICENTER":269.3521,"MEAN_ANOMALY":90.6229,"EPHEMERIS_TYPE":0,"CLASSIFICATION_TYPE":"U","NORAD_CAT_ID":21263,"ELEMENT_SET_NO":999,"REV_AT_EPOCH":81321,"BSTAR":5.5986e-5,"MEAN_MOTION_DOT":9.2e-7,"MEAN_MOTION_DDOT":0},{"OBJECT_NAME":"NOAA 13","OBJECT_ID":"1993-050A","EPOCH":"2026-03-26T10:11:03.459840","MEAN_MOTION":14.1364176,"ECCENTRICITY":0.0009747,"INCLINATION":98.6959,"RA_OF_ASC_NODE":32.707,"ARG_OF_PERICENTER":12.5884,"MEAN_ANOMALY":347.5531,"EPHEMERIS_TYPE":0,"CLASSIFICATION_TYPE":"U","NORAD_CAT_ID":22739,"ELEMENT_SET_NO":999,"REV_AT_EPOCH":68168,"BSTAR":8.4355e-5,"MEAN_MOTION_DOT":1.16e-6,"MEAN_MOTION_DDOT":0},{"OBJECT_NAME":"NOAA 14","OBJECT_ID":"1994-089A","EPOCH":"2026-03-26T20:51:24.224832","MEAN_MOTION":14.14659109,"ECCENTRICITY":0.0008818,"INCLINATION":98.505,"RA_OF_ASC_NODE":59.2713,"ARG_OF_PERICENTER":326.5448,"MEAN_ANOMALY":33.5168,"EPHEMERIS_TYPE":0,"CLASSIFICATION_TYPE":"U","NORAD_CAT_ID":23455,"ELEMENT_SET_NO":999,"REV_AT_EPOCH":61156,"BSTAR":6.2462e-5,"MEAN_MOTION_DOT":7.9e-7,"MEAN_MOTION_DDOT":0},{"OBJECT_NAME":"NOAA 15","OBJECT_ID":"1998-030A","EPOCH":"2026-03-26T19:20:27.650112","MEAN_MOTION":14.2711918,"ECCENTRICITY":0.0009431,"INCLINATION":98.5143,"RA_OF_ASC_NODE":108.639,"ARG_OF_PERICENTER":224.0605,"MEAN_ANOMALY":135.9825,"EPHEMERIS_TYPE":0,"CLASSIFICATION_TYPE":"U","NORAD_CAT_ID":25338,"ELEMENT_SET_NO":999,"REV_AT_EPOCH":44954,"BSTAR":7.515e-5,"MEAN_MOTION_DOT":1.41e-6,"MEAN_MOTION_DDOT":0},{"OBJECT_NAME":"NOAA 16","OBJECT_ID":"2000-055A","EPOCH":"2026-03-26T19:03:47.000736","MEAN_MOTION":14.13902745,"ECCENTRICITY":0.0010556,"INCLINATION":98.4688,"RA_OF_ASC_NODE":104.4049,"ARG_OF_PERICENTER":171.6708,"MEAN_ANOMALY":188.4642,"EPHEMERIS_TYPE":0,"CLASSIFICATION_TYPE":"U","NORAD_CAT_ID":26536,"ELEMENT_SET_NO":999,"REV_AT_EPOCH":61208,"BSTAR":7.695e-5,"MEAN_MOTION_DOT":1.05e-6,"MEAN_MOTION_DDOT":0},{"OBJECT_NAME":"NOAA 17","OBJECT_ID":"2002-032A","EPOCH":"2026-03-26T20:44:16.338336","MEAN_MOTION":14.26198717,"ECCENTRICITY":0.0010765,"INCLINATION":98.857,"RA_OF_ASC_NODE":50.6787,"ARG_OF_PERICENTER":227.062,"MEAN_ANOMALY":132.9657,"EPHEMERIS_TYPE":0,"CLASSIFICATION_TYPE":"U","NORAD_CAT_ID":27453,"ELEMENT_SET_NO":999,"REV_AT_EPOCH":23525,"BSTAR":0.00011074,"MEAN_MOTION_DOT":2.2e-6,"MEAN_MOTION_DDOT":0},{"OBJECT_NAME":"NOAA 18","OBJECT_ID":"2005-018A","EPOCH":"2026-03-26T19:27:46.410912","MEAN_MOTION":14.13714295,"ECCENTRICITY":0.0014668,"INCLINATION":98.8134,"RA_OF_ASC_NODE":166.6766,"ARG_OF_PERICENTER":29.3807,"MEAN_ANOMALY":330.8187,"EPHEMERIS_TYPE":0,"CLASSIFICATION_TYPE":"U","NORAD_CAT_ID":28654,"ELEMENT_SET_NO":999,"REV_AT_EPOCH":7467,"BSTAR":4.6432e-5,"MEAN_MOTION_DOT":4.4e-7,"MEAN_MOTION_DDOT":0},{"OBJECT_NAME":"NOAA 19","OBJECT_ID":"2009-005A","EPOCH":"2026-03-26T19:05:03.945120","MEAN_MOTION":14.13460082,"ECCENTRICITY":0.0012712,"INCLINATION":98.9575,"RA_OF_ASC_NODE":156.5925,"ARG_OF_PERICENTER":262.4588,"MEAN_ANOMALY":97.514,"EPHEMERIS_TYPE":0,"CLASSIFICATION_TYPE":"U","NORAD_CAT_ID":33591,"ELEMENT_SET_NO":999,"REV_AT_EPOCH":88284,"BSTAR":4.7717e-5,"MEAN_MOTION_DOT":4.5e-7,"MEAN_MOTION_DDOT":0},{"OBJECT_NAME":"SUOMI NPP","OBJECT_ID":"2011-061A","EPOCH":"2026-03-26T19:13:10.227648","MEAN_MOTION":14.19497909,"ECCENTRICITY":0.0001555,"INCLINATION":98.7889,"RA_OF_ASC_NODE":27.2692,"ARG_OF_PERICENTER":163.9306,"MEAN_ANOMALY":196.1919,"EPHEMERIS_TYPE":0,"CLASSIFICATION_TYPE":"U","NORAD_CAT_ID":37849,"ELEMENT_SET_NO":999,"REV_AT_EPOCH":74675,"BSTAR":6.9794e-5,"MEAN_MOTION_DOT":1.03e-6,"MEAN_MOTION_DDOT":0},{"OBJECT_NAME":"NOAA 20 (JPSS-1)","OBJECT_ID":"2017-073A","EPOCH":"2026-03-26T19:34:01.744608","MEAN_MOTION":14.19540384,"ECCENTRICITY":0.0001832,"INCLINATION":98.771,"RA_OF_ASC_NODE":26.0342,"ARG_OF_PERICENTER":114.7399,"MEAN_ANOMALY":245.3968,"EPHEMERIS_TYPE":0,"CLASSIFICATION_TYPE":"U","NORAD_CAT_ID":43013,"ELEMENT_SET_NO":999,"REV_AT_EPOCH":43278,"BSTAR":5.4815e-5,"MEAN_MOTION_DOT":7.1e-7,"MEAN_MOTION_DDOT":0},{"OBJECT_NAME":"NOAA 21 (JPSS-2)","OBJECT_ID":"2022-150A","EPOCH":"2026-03-26T20:23:43.863936","MEAN_MOTION":14.19556567,"ECCENTRICITY":0.0002767,"INCLINATION":98.7572,"RA_OF_ASC_NODE":25.921,"ARG_OF_PERICENTER":76.4858,"MEAN_ANOMALY":283.6626,"EPHEMERIS_TYPE":0,"CLASSIFICATION_TYPE":"U","NORAD_CAT_ID":54234,"ELEMENT_SET_NO":999,"REV_AT_EPOCH":17486,"BSTAR":6.2401e-5,"MEAN_MOTION_DOT":8.8e-7,"MEAN_MOTION_DDOT":0}]
